{
    "links": {
        "self": "http://www.neowsapp.com/rest/v1/neo/3776285?api_key=iIulBulltgU6a56xZRHN4H3l9WmuAYTsLGpBGhQ2"
    },
    "id": "3776285",
    "neo_reference_id": "3776285",
    "name": "(2017 MA9)",
    "designation": "2017 MA9",
    "nasa_jpl_url": "http://ssd.jpl.nasa.gov/sbdb.cgi?sstr=3776285",
    "absolute_magnitude_h": 21.609,
    "estimated_diameter": {
        "kilometers": {
            "estimated_diameter_min": 0.1266936875,
            "estimated_diameter_max": 0.2832956975
        },
        "meters": {
            "estimated_diameter_min": 126.6936874598,
            "estimated_diameter_max": 283.2956974803
        },
        "miles": {
            "estimated_diameter_min": 0.0787237833,
            "estimated_diameter_max": 0.1760317308
        },
        "feet": {
            "estimated_diameter_min": 415.6617175657,
            "estimated_diameter_max": 929.4478561212
        }
    },
    "is_potentially_hazardous_asteroid": false,
    "close_approach_data": [
        {
            "close_approach_date": "2017-07-07",
            "close_approach_date_full": "2017-Jul-07 01:27",
            "epoch_date_close_approach": 1499390820000,
            "relative_velocity": {
                "kilometers_per_second": "18.5311881937",
                "kilometers_per_hour": "66712.2774974867",
                "miles_per_hour": "41452.4148705911"
            },
            "miss_distance": {
                "astronomical": "0.146679938",
                "lunar": "57.058495882",
                "kilometers": "21943006.29653206",
                "miles": "13634751.860820028"
            },
            "orbiting_body": "Earth"
        }
    ],
    "orbital_data": {
        "orbit_id": "2",
        "orbit_determination_date": "2020-06-12 06:24:38",
        "first_observation_date": "2017-06-23",
        "last_observation_date": "2017-07-02",
        "data_arc_in_days": 9,
        "observations_used": 10,
        "orbit_uncertainty": "9",
        "minimum_orbit_intersection": ".0734404",
        "jupiter_tisserand_invariant": "3.218",
        "epoch_osculation": "2457929.5",
        "eccentricity": ".6470250669259739",
        "semi_major_axis": "2.36275425153081",
        "inclination": "8.876536982622222",
        "ascending_node_longitude": "76.82378781741338",
        "orbital_period": "1326.558042143287",
        "perihelion_distance": ".8339930238044582",
        "perihelion_argument": "276.3919977091924",
        "aphelion_distance": "3.891515479257161",
        "perihelion_time": "2457985.487946517843",
        "mean_anomaly": "344.8060468474802",
        "mean_motion": ".2713790038303615",
        "equinox": "J2000",
        "orbit_class": {
            "orbit_class_type": "APO",
            "orbit_class_description": "Near-Earth asteroid orbits which cross the Earth’s orbit similar to that of 1862 Apollo",
            "orbit_class_range": "a (semi-major axis) > 1.0 AU; q (perihelion) < 1.017 AU"
        }
    },
    "is_sentry_object": false
}